{"type": "FeatureCollection", "features": [ {"type": "Feature", "properties": {"norad_id": 43207, "name": "BEIDOU-3 M4 (C22)", "group": "beidou", "lat": -49.04469157508129, "lon": -60.69906067587137, "alt_km": 21540.94880051098, "timestamp": "2025-12-03T13:52:09.826717+00:00", "meta": {"OBJECT_NAME": "BEIDOU-3 M4 (C22)", "OBJECT_ID": "2018-018A", "EPOCH": "2025-12-02T03:19:43.852800", "MEAN_MOTION": 1.86230706, "ECCENTRICITY": 0.00040749, "INCLINATION": 56.4768, "RA_OF_ASC_NODE": 69.6557, "ARG_OF_PERICENTER": 15.1369, "MEAN_ANOMALY": 344.8773, "EPHEMERIS_TYPE": 0, "CLASSIFICATION_TYPE": "U", "NORAD_CAT_ID": 43207, "ELEMENT_SET_NO": 999, "REV_AT_EPOCH": 5307, "BSTAR": 0, "MEAN_MOTION_DOT": -4.5e-07, "MEAN_MOTION_DDOT": 0}, "tle": {"line1": "1 43207U 18018A   25336.13870200 -.00000045  00000+0  00000+0 0  9992", "line2": "2 43207  56.4768  69.6557 0004074  15.1369 344.8773  1.86230706 53076"}}, "geometry": {"type": "Point", "coordinates": [-60.69906067587137, -49.04469157508129]}}, {"type": "Feature", "properties": {"norad_id": 43208, "name": "BEIDOU-3 M3 (C21)", "group": "beidou", "lat": -16.762527535179625, "lon": -98.88768926271577, "alt_km": 21538.55007702831, "timestamp": "2025-12-03T13:52:09.826736+00:00", "meta": {"OBJECT_NAME": "BEIDOU-3 M3 (C21)", "OBJECT_ID": "2018-018B", "EPOCH": "2025-12-03T06:41:57.694272", "MEAN_MOTION": 1.86230862, "ECCENTRICITY": 0.00062821, "INCLINATION": 56.4772, "RA_OF_ASC_NODE": 69.6218, "ARG_OF_PERICENTER": 317.5873, "MEAN_ANOMALY": 42.3668, "EPHEMERIS_TYPE": 0, "CLASSIFICATION_TYPE": "U", "NORAD_CAT_ID": 43208, "ELEMENT_SET_NO": 999, "REV_AT_EPOCH": 5309, "BSTAR": 0, "MEAN_MOTION_DOT": -4.9e-07, "MEAN_MOTION_DDOT": 0}, "tle": {"line1": "1 43208U 18018B   25337.27913998 -.00000049  00000+0  00000+0 0  9995", "line2": "2 43208  56.4772  69.6218 0006282 317.5873  42.3668  1.86230862 53096"}}, "geometry": {"type": "Point", "coordinates": [-98.88768926271577, -16.762527535179625]}}, {"type": "Feature", "properties": {"norad_id": 43245, "name": "BEIDOU-3 M9 (C29)", "group": "beidou", "lat": 42.007772807791355, "lon": -13.026225781884884, "alt_km": 21527.285305534137, "timestamp": "2025-12-03T13:52:09.826748+00:00", "meta": {"OBJECT_NAME": "BEIDOU-3 M9 (C29)", "OBJECT_ID": "2018-029A", "EPOCH": "2025-12-01T08:20:14.784576", "MEAN_MOTION": 1.86227904, "ECCENTRICITY": 0.00017985, "INCLINATION": 54.3765, "RA_OF_ASC_NODE": 306.8658, "ARG_OF_PERICENTER": 272.1738, "MEAN_ANOMALY": 87.7976, "EPHEMERIS_TYPE": 0, "CLASSIFICATION_TYPE": "U", "NORAD_CAT_ID": 43245, "ELEMENT_SET_NO": 999, "REV_AT_EPOCH": 5221, "BSTAR": 0, "MEAN_MOTION_DOT": -5.8e-07, "MEAN_MOTION_DDOT": 0}, "tle": {"line1": "1 43245U 18029A   25335.34739334 -.00000058  00000+0  00000+0 0  9994", "line2": "2 43245  54.3765 306.8658 0001798 272.1738  87.7976  1.86227904 52214"}}, "geometry": {"type": "Point", "coordinates": [-13.026225781884884, 42.007772807791355]}}, {"type": "Feature", "properties": {"norad_id": 43246, "name": "BEIDOU-3 M10 (C30)", "group": "beidou", "lat": 53.42022163855279, "lon": 51.7911023631846, "alt_km": 21523.88301032284, "timestamp": "2025-12-03T13:52:09.826760+00:00", "meta": {"OBJECT_NAME": "BEIDOU-3 M10 (C30)", "OBJECT_ID": "2018-029B", "EPOCH": "2025-12-01T06:47:05.876160", "MEAN_MOTION": 1.86228878, "ECCENTRICITY": 0.00039456, "INCLINATION": 54.3738, "RA_OF_ASC_NODE": 306.8948, "ARG_OF_PERICENTER": 359.0854, "MEAN_ANOMALY": 0.9061, "EPHEMERIS_TYPE": 0, "CLASSIFICATION_TYPE": "U", "NORAD_CAT_ID": 43246, "ELEMENT_SET_NO": 999, "REV_AT_EPOCH": 5219, "BSTAR": 0, "MEAN_MOTION_DOT": -5.7e-07, "MEAN_MOTION_DDOT": 0}, "tle": {"line1": "1 43246U 18029B   25335.28270690 -.00000057  00000+0  00000+0 0  9992", "line2": "2 43246  54.3738 306.8948 0003945 359.0854   0.9061  1.86228878 52197"}}, "geometry": {"type": "Point", "coordinates": [51.7911023631846, 53.42022163855279]}}, {"type": "Feature", "properties": {"norad_id": 43539, "name": "BEIDOU-2 IGSO-7 (C16)", "group": "beidou", "lat": -36.9828150981151, "lon": 16.427541902253466, "alt_km": 35407.89234125052, "timestamp": "2025-12-03T13:52:09.826772+00:00", "meta": {"OBJECT_NAME": "BEIDOU-2 IGSO-7 (C16)", "OBJECT_ID": "2018-057A", "EPOCH": "2025-12-02T22:52:29.161056", "MEAN_MOTION": 1.0025968, "ECCENTRICITY": 0.00924759, "INCLINATION": 55.1727, "RA_OF_ASC_NODE": 164.7578, "ARG_OF_PERICENTER": 235.1616, "MEAN_ANOMALY": 126.6896, "EPHEMERIS_TYPE": 0, "CLASSIFICATION_TYPE": "U", "NORAD_CAT_ID": 43539, "ELEMENT_SET_NO": 999, "REV_AT_EPOCH": 2716, "BSTAR": 0, "MEAN_MOTION_DOT": -2.1e-07, "MEAN_MOTION_DDOT": 0}, "tle": {"line1": "1 43539U 18057A   25336.95311529 -.00000021  00000+0  00000+0 0  9991", "line2": "2 43539  55.1727 164.7578 0092475 235.1616 126.6896  1.00259680 27167"}}, "geometry": {"type": "Point", "coordinates": [16.427541902253466, -36.9828150981151]}}, {"type": "Feature", "properties": {"norad_id": 43581, "name": "BEIDOU-3 M5 (C23)", "group": "beidou", "lat": -39.59118149236171, "lon": 152.14505899747093, "alt_km": 21528.584572541753, "timestamp": "2025-12-03T13:52:09.826784+00:00", "meta": {"OBJECT_NAME": "BEIDOU-3 M5 (C23)", "OBJECT_ID": "2018-062A", "EPOCH": "2025-11-30T23:17:32.661024", "MEAN_MOTION": 1.8622853, "ECCENTRICITY": 0.0002124, "INCLINATION": 54.0891, "RA_OF_ASC_NODE": 189.0442, "ARG_OF_PERICENTER": 349.7703, "MEAN_ANOMALY": 10.3183, "EPHEMERIS_TYPE": 0, "CLASSIFICATION_TYPE": "U", "NORAD_CAT_ID": 43581, "ELEMENT_SET_NO": 999, "REV_AT_EPOCH": 4994, "BSTAR": 0, "MEAN_MOTION_DOT": 1.17e-06, "MEAN_MOTION_DDOT": 0}, "tle": {"line1": "1 43581U 18062A   25334.97051691  .00000117  00000+0  00000+0 0  9990", "line2": "2 43581  54.0891 189.0442 0002124 349.7703  10.3183  1.86228530 49947"}}, "geometry": {"type": "Point", "coordinates": [152.14505899747093, -39.59118149236171]}}, {"type": "Feature", "properties": {"norad_id": 43582, "name": "BEIDOU-3 M6 (C24)", "group": "beidou", "lat": 31.314968922853595, "lon": -144.88743683898667, "alt_km": 21503.04667364631, "timestamp": "2025-12-03T13:52:09.826795+00:00", "meta": {"OBJECT_NAME": "BEIDOU-3 M6 (C24)", "OBJECT_ID": "2018-062B", "EPOCH": "2025-11-29T18:14:01.707936", "MEAN_MOTION": 1.86229617, "ECCENTRICITY": 0.00076529, "INCLINATION": 54.0888, "RA_OF_ASC_NODE": 189.0746, "ARG_OF_PERICENTER": 45.4041, "MEAN_ANOMALY": 314.7474, "EPHEMERIS_TYPE": 0, "CLASSIFICATION_TYPE": "U", "NORAD_CAT_ID": 43582, "ELEMENT_SET_NO": 999, "REV_AT_EPOCH": 4992, "BSTAR": 0, "MEAN_MOTION_DOT": 1.07e-06, "MEAN_MOTION_DDOT": 0}, "tle": {"line1": "1 43582U 18062B   25333.75974199  .00000107  00000+0  00000+0 0  9992", "line2": "2 43582  54.0888 189.0746 0007652  45.4041 314.7474  1.86229617 49926"}}, "geometry": {"type": "Point", "coordinates": [-144.88743683898667, 31.314968922853595]}}, {"type": "Feature", "properties": {"norad_id": 43602, "name": "BEIDOU-3 M12 (C26)", "group": "beidou", "lat": 53.35602027222532, "lon": -96.1814306940313, "alt_km": 21502.899049887168, "timestamp": "2025-12-03T13:52:09.826807+00:00", "meta": {"OBJECT_NAME": "BEIDOU-3 M12 (C26)", "OBJECT_ID": "2018-067A", "EPOCH": "2025-12-02T22:03:38.488608", "MEAN_MOTION": 1.86227625, "ECCENTRICITY": 0.00091443, "INCLINATION": 54.1831, "RA_OF_ASC_NODE": 187.6966, "ARG_OF_PERICENTER": 40.498, "MEAN_ANOMALY": 319.6647, "EPHEMERIS_TYPE": 0, "CLASSIFICATION_TYPE": "U", "NORAD_CAT_ID": 43602, "ELEMENT_SET_NO": 999, "REV_AT_EPOCH": 4946, "BSTAR": 0, "MEAN_MOTION_DOT": 1.2e-06, "MEAN_MOTION_DDOT": 0}, "tle": {"line1": "1 43602U 18067A   25336.91919547  .00000120  00000+0  00000+0 0  9992", "line2": "2 43602  54.1831 187.6966 0009144  40.4980 319.6647  1.86227625 49463"}}, "geometry": {"type": "Point", "coordinates": [-96.1814306940313, 53.35602027222532]}}, {"type": "Feature", "properties": {"norad_id": 43603, "name": "BEIDOU-3 M11 (C25)", "group": "beidou", "lat": -6.92421493788524, "lon": -177.38486263020422, "alt_km": 21518.53522395877, "timestamp": "2025-12-03T13:52:09.826819+00:00", "meta": {"OBJECT_NAME": "BEIDOU-3 M11 (C25)", "OBJECT_ID": "2018-067B", "EPOCH": "2025-12-03T01:17:17.813760", "MEAN_MOTION": 1.86227127, "ECCENTRICITY": 0.00055672, "INCLINATION": 54.1805, "RA_OF_ASC_NODE": 187.6562, "ARG_OF_PERICENTER": 36.1589, "MEAN_ANOMALY": 323.9732, "EPHEMERIS_TYPE": 0, "CLASSIFICATION_TYPE": "U", "NORAD_CAT_ID": 43603, "ELEMENT_SET_NO": 999, "REV_AT_EPOCH": 4949, "BSTAR": 0, "MEAN_MOTION_DOT": 1.19e-06, "MEAN_MOTION_DDOT": 0}, "tle": {"line1": "1 43603U 18067B   25337.05367840  .00000119  00000+0  00000+0 0  9990", "line2": "2 43603  54.1805 187.6562 0005567  36.1589 323.9732  1.86227127 49492"}}, "geometry": {"type": "Point", "coordinates": [-177.38486263020422, -6.92421493788524]}}, {"type": "Feature", "properties": {"norad_id": 43622, "name": "BEIDOU-3 M13 (C32)", "group": "beidou", "lat": 17.072880116907715, "lon": 80.86558269248039, "alt_km": 21523.913363291806, "timestamp": "2025-12-03T13:52:09.826830+00:00", "meta": {"OBJECT_NAME": "BEIDOU-3 M13 (C32)", "OBJECT_ID": "2018-072A", "EPOCH": "2025-12-01T22:28:14.583360", "MEAN_MOTION": 1.8623073, "ECCENTRICITY": 0.00055911, "INCLINATION": 56.4497, "RA_OF_ASC_NODE": 69.1783, "ARG_OF_PERICENTER": 298.7186, "MEAN_ANOMALY": 61.2282, "EPHEMERIS_TYPE": 0, "CLASSIFICATION_TYPE": "U", "NORAD_CAT_ID": 43622, "ELEMENT_SET_NO": 999, "REV_AT_EPOCH": 4898, "BSTAR": 0, "MEAN_MOTION_DOT": -4.4e-07, "MEAN_MOTION_DDOT": 0}, "tle": {"line1": "1 43622U 18072A   25335.93627990 -.00000044  00000+0  00000+0 0  9995", "line2": "2 43622  56.4497  69.1783 0005591 298.7186  61.2282  1.86230730 48989"}}, "geometry": {"type": "Point", "coordinates": [80.86558269248039, 17.072880116907715]}}]}